{
  "type": "FeatureCollection",
  "features": [
    {
      "type": "Feature",
      "properties": {
        "norad_id": 37562,
        "name": "IRIDIUM 33 DEB",
        "group": "iridium-33-debris",
        "lat": 7.093437635130058,
        "lon": 48.617067924514295,
        "alt_km": 719.8900139406733,
        "timestamp": "2025-12-02T06:27:53.397417+00:00",
        "meta_object_name": "IRIDIUM 33 DEB",
        "meta_object_id": "1997-051XX",
        "meta_epoch": "2025-11-29T00:05:12.463008",
        "meta_mean_motion": 14.56266832,
        "meta_eccentricity": 0.00262725,
        "meta_inclination": 86.3751,
        "meta_ra_of_asc_node": 49.588,
        "meta_arg_of_pericenter": 151.1631,
        "meta_mean_anomaly": 26.2084,
        "meta_ephemeris_type": 0,
        "meta_classification_type": "U",
        "meta_norad_cat_id": 37562,
        "meta_element_set_no": 999,
        "meta_rev_at_epoch": 86128,
        "meta_bstar": 0.0012615266,
        "meta_mean_motion_dot": 5.628e-05,
        "meta_mean_motion_ddot": 0,
        "tle_line1": "1 37562U 97051XX  25333.00361647  .00005628  00000+0  12615-2 0  9995",
        "tle_line2": "2 37562  86.3751  49.5880 0026272 151.1631  26.2084 14.56266832861286"
      },
      "geometry": {
        "type": "Point",
        "coordinates": [
          48.617067924514295,
          7.093437635130058
        ]
      }
    },
    {
      "type": "Feature",
      "properties": {
        "norad_id": 37565,
        "name": "IRIDIUM 33 DEB",
        "group": "iridium-33-debris",
        "lat": -27.05198018797967,
        "lon": 12.271522234796366,
        "alt_km": 735.1141207605951,
        "timestamp": "2025-12-02T06:27:53.397427+00:00",
        "meta_object_name": "IRIDIUM 33 DEB",
        "meta_object_id": "1997-051YA",
        "meta_epoch": "2025-12-01T09:04:48.126720",
        "meta_mean_motion": 14.51440972,
        "meta_eccentricity": 0.00151047,
        "meta_inclination": 86.3507,
        "meta_ra_of_asc_node": 14.527,
        "meta_arg_of_pericenter": 117.1302,
        "meta_mean_anomaly": 243.1446,
        "meta_ephemeris_type": 0,
        "meta_classification_type": "U",
        "meta_norad_cat_id": 37565,
        "meta_element_set_no": 999,
        "meta_rev_at_epoch": 65672,
        "meta_bstar": 0.00062987128,
        "meta_mean_motion_dot": 2.537e-05,
        "meta_mean_motion_ddot": 0,
        "tle_line1": "1 37565U 97051YA  25335.37833480  .00002537  00000+0  62987-3 0  9993",
        "tle_line2": "2 37565  86.3507  14.5270 0015104 117.1302 243.1446 14.51440972656729"
      },
      "geometry": {
        "type": "Point",
        "coordinates": [
          12.271522234796366,
          -27.05198018797967
        ]
      }
    },
    {
      "type": "Feature",
      "properties": {
        "norad_id": 38017,
        "name": "IRIDIUM 33 DEB",
        "group": "iridium-33-debris",
        "lat": 12.610855032405228,
        "lon": -10.048495346067986,
        "alt_km": 674.7414047744423,
        "timestamp": "2025-12-02T06:27:53.397438+00:00",
        "meta_object_name": "IRIDIUM 33 DEB",
        "meta_object_id": "1997-051YD",
        "meta_epoch": "2025-12-01T06:29:11.103360",
        "meta_mean_motion": 14.48304289,
        "meta_eccentricity": 0.009214,
        "meta_inclination": 86.3439,
        "meta_ra_of_asc_node": 171.2047,
        "meta_arg_of_pericenter": 141.8586,
        "meta_mean_anomaly": 218.9187,
        "meta_ephemeris_type": 0,
        "meta_classification_type": "U",
        "meta_norad_cat_id": 38017,
        "meta_element_set_no": 999,
        "meta_rev_at_epoch": 61236,
        "meta_bstar": 0.0066574,
        "meta_mean_motion_dot": 0.00026341,
        "meta_mean_motion_ddot": 0,
        "tle_line1": "1 38017U 97051YD  25335.27026740  .00026341  00000+0  66574-2 0  9992",
        "tle_line2": "2 38017  86.3439 171.2047 0092140 141.8586 218.9187 14.48304289612362"
      },
      "geometry": {
        "type": "Point",
        "coordinates": [
          -10.048495346067986,
          12.610855032405228
        ]
      }
    },
    {
      "type": "Feature",
      "properties": {
        "norad_id": 38022,
        "name": "IRIDIUM 33 DEB",
        "group": "iridium-33-debris",
        "lat": -50.48145196544873,
        "lon": -154.43656593013537,
        "alt_km": 789.8904910464007,
        "timestamp": "2025-12-02T06:27:53.397448+00:00",
        "meta_object_name": "IRIDIUM 33 DEB",
        "meta_object_id": "1997-051YJ",
        "meta_epoch": "2025-12-01T09:24:18.819072",
        "meta_mean_motion": 14.41139287,
        "meta_eccentricity": 0.00471789,
        "meta_inclination": 86.2706,
        "meta_ra_of_asc_node": 21.4121,
        "meta_arg_of_pericenter": 86.4447,
        "meta_mean_anomaly": 274.2147,
        "meta_ephemeris_type": 0,
        "meta_classification_type": "U",
        "meta_norad_cat_id": 38022,
        "meta_element_set_no": 999,
        "meta_rev_at_epoch": 69030,
        "meta_bstar": 0.0011656877,
        "meta_mean_motion_dot": 3.826e-05,
        "meta_mean_motion_ddot": 0,
        "tle_line1": "1 38022U 97051YJ  25335.39188448  .00003826  00000+0  11657-2 0  9990",
        "tle_line2": "2 38022  86.2706  21.4121 0047178  86.4447 274.2147 14.41139287690302"
      },
      "geometry": {
        "type": "Point",
        "coordinates": [
          -154.43656593013537,
          -50.48145196544873
        ]
      }
    },
    {
      "type": "Feature",
      "properties": {
        "norad_id": 38028,
        "name": "IRIDIUM 33 DEB",
        "group": "iridium-33-debris",
        "lat": -7.287107927688544,
        "lon": -174.70855766649026,
        "alt_km": 724.6934420669677,
        "timestamp": "2025-12-02T06:27:53.397458+00:00",
        "meta_object_name": "IRIDIUM 33 DEB",
        "meta_object_id": "1997-051YQ",
        "meta_epoch": "2025-12-01T19:38:22.493760",
        "meta_mean_motion": 14.46148175,
        "meta_eccentricity": 0.0029331,
        "meta_inclination": 86.3254,
        "meta_ra_of_asc_node": 5.0166,
        "meta_arg_of_pericenter": 155.6716,
        "meta_mean_anomaly": 204.5878,
        "meta_ephemeris_type": 0,
        "meta_classification_type": "U",
        "meta_norad_cat_id": 38028,
        "meta_element_set_no": 999,
        "meta_rev_at_epoch": 65337,
        "meta_bstar": 0.00036228,
        "meta_mean_motion_dot": 1.321e-05,
        "meta_mean_motion_ddot": 0,
        "tle_line1": "1 38028U 97051YQ  25335.81831590  .00001321  00000+0  36228-3 0  9996",
        "tle_line2": "2 38028  86.3254   5.0166 0029331 155.6716 204.5878 14.46148175653377"
      },
      "geometry": {
        "type": "Point",
        "coordinates": [
          -174.70855766649026,
          -7.287107927688544
        ]
      }
    },
    {
      "type": "Feature",
      "properties": {
        "norad_id": 38228,
        "name": "IRIDIUM 33 DEB",
        "group": "iridium-33-debris",
        "lat": 67.54704413817996,
        "lon": -136.08650148043847,
        "alt_km": 810.5982661077842,
        "timestamp": "2025-12-02T06:27:53.397469+00:00",
        "meta_object_name": "IRIDIUM 33 DEB",
        "meta_object_id": "1997-051ZC",
        "meta_epoch": "2025-11-29T12:36:14.255136",
        "meta_mean_motion": 14.27233107,
        "meta_eccentricity": 0.00630868,
        "meta_inclination": 86.2984,
        "meta_ra_of_asc_node": 54.0911,
        "meta_arg_of_pericenter": 232.1345,
        "meta_mean_anomaly": 189.6543,
        "meta_ephemeris_type": 0,
        "meta_classification_type": "U",
        "meta_norad_cat_id": 38228,
        "meta_element_set_no": 999,
        "meta_rev_at_epoch": 84593,
        "meta_bstar": 0.00041927733,
        "meta_mean_motion_dot": 1.064e-05,
        "meta_mean_motion_ddot": 0,
        "tle_line1": "1 38228U 97051ZC  25333.52516499  .00001064  00000+0  41928-3 0  9999",
        "tle_line2": "2 38228  86.2984  54.0911 0063086 232.1345 189.6543 14.27233107845930"
      },
      "geometry": {
        "type": "Point",
        "coordinates": [
          -136.08650148043847,
          67.54704413817996
        ]
      }
    },
    {
      "type": "Feature",
      "properties": {
        "norad_id": 38241,
        "name": "IRIDIUM 33 DEB",
        "group": "iridium-33-debris",
        "lat": 76.55659728680881,
        "lon": 10.82274321260699,
        "alt_km": 699.1448821379254,
        "timestamp": "2025-12-02T06:27:53.397482+00:00",
        "meta_object_name": "IRIDIUM 33 DEB",
        "meta_object_id": "1997-051ZR",
        "meta_epoch": "2025-12-01T08:39:05.059872",
        "meta_mean_motion": 14.54752437,
        "meta_eccentricity": 0.00056988,
        "meta_inclination": 86.3235,
        "meta_ra_of_asc_node": 355.6193,
        "meta_arg_of_pericenter": 96.8352,
        "meta_mean_anomaly": 263.3504,
        "meta_ephemeris_type": 0,
        "meta_classification_type": "U",
        "meta_norad_cat_id": 38241,
        "meta_element_set_no": 999,
        "meta_rev_at_epoch": 60035,
        "meta_bstar": 0.00088099609,
        "meta_mean_motion_dot": 3.793e-05,
        "meta_mean_motion_ddot": 0,
        "tle_line1": "1 38241U 97051ZR  25335.36047523  .00003793  00000+0  88100-3 0  9999",
        "tle_line2": "2 38241  86.3235 355.6193 0005698  96.8352 263.3504 14.54752437600359"
      },
      "geometry": {
        "type": "Point",
        "coordinates": [
          10.82274321260699,
          76.55659728680881
        ]
      }
    }
  ]
}